{
  "type": "FeatureCollection",
  "features": [
    {
      "type": "Feature",
      "properties": {
        "norad_id": 28054,
        "name": "DMSP 5D-3 F16 (USA 172)",
        "group": "weather",
        "lat": 49.11133469230444,
        "lon": -152.73095692556308,
        "alt_km": 843.7097114400676,
        "timestamp": "2025-12-25T03:55:55.948462+00:00",
        "meta_object_name": "DMSP 5D-3 F16 (USA 172)",
        "meta_object_id": "2003-048A",
        "meta_epoch": "2025-12-24T19:38:57.122016",
        "meta_mean_motion": 14.14428363,
        "meta_eccentricity": 0.0006246,
        "meta_inclination": 99.0038,
        "meta_ra_of_asc_node": 16.3702,
        "meta_arg_of_pericenter": 282.0888,
        "meta_mean_anomaly": 251.5495,
        "meta_ephemeris_type": 0,
        "meta_classification_type": "U",
        "meta_norad_cat_id": 28054,
        "meta_element_set_no": 999,
        "meta_rev_at_epoch": 14483,
        "meta_bstar": 7.9142e-05,
        "meta_mean_motion_dot": 1.06e-06,
        "meta_mean_motion_ddot": 0,
        "tle_line1": "1 28054U 03048A   25358.81871669  .00000106  00000+0  79142-4 0  9996",
        "tle_line2": "2 28054  99.0038  16.3702 0006246 282.0888 251.5495 14.14428363144830"
      },
      "geometry": {
        "type": "Point",
        "coordinates": [
          -152.73095692556308,
          49.11133469230444
        ]
      }
    },
    {
      "type": "Feature",
      "properties": {
        "norad_id": 28912,
        "name": "METEOSAT-9 (MSG-2)",
        "group": "weather",
        "lat": 5.583898431676846,
        "lon": -162.45368438298038,
        "alt_km": 36019.80569261059,
        "timestamp": "2025-12-25T03:55:55.948511+00:00",
        "meta_object_name": "METEOSAT-9 (MSG-2)",
        "meta_object_id": "2005-049B",
        "meta_epoch": "2025-12-24T18:27:10.310112",
        "meta_mean_motion": 1.00268275,
        "meta_eccentricity": 0.0071969,
        "meta_inclination": 8.9553,
        "meta_ra_of_asc_node": 55.846,
        "meta_arg_of_pericenter": 282.2974,
        "meta_mean_anomaly": 77.0088,
        "meta_ephemeris_type": 0,
        "meta_classification_type": "U",
        "meta_norad_cat_id": 28912,
        "meta_element_set_no": 999,
        "meta_rev_at_epoch": 524,
        "meta_bstar": 0,
        "meta_mean_motion_dot": 1.45e-06,
        "meta_mean_motion_ddot": 0,
        "tle_line1": "1 28912U 05049B   25358.76886933  .00000145  00000+0  00000+0 0  9991",
        "tle_line2": "2 28912   8.9553  55.8460 0071969 282.2974  77.0088  1.00268275  5240"
      },
      "geometry": {
        "type": "Point",
        "coordinates": [
          -162.45368438298038,
          5.583898431676846
        ]
      }
    },
    {
      "type": "Feature",
      "properties": {
        "norad_id": 29522,
        "name": "DMSP 5D-3 F17 (USA 191)",
        "group": "weather",
        "lat": 80.99532178958952,
        "lon": -99.61846030315597,
        "alt_km": 835.8232879721663,
        "timestamp": "2025-12-25T03:55:55.948529+00:00",
        "meta_object_name": "DMSP 5D-3 F17 (USA 191)",
        "meta_object_id": "2006-050A",
        "meta_epoch": "2025-12-24T20:42:32.730048",
        "meta_mean_motion": 14.14924542,
        "meta_eccentricity": 0.0009931,
        "meta_inclination": 98.7392,
        "meta_ra_of_asc_node": 3.9995,
        "meta_arg_of_pericenter": 188.7309,
        "meta_mean_anomaly": 171.3693,
        "meta_ephemeris_type": 0,
        "meta_classification_type": "U",
        "meta_norad_cat_id": 29522,
        "meta_element_set_no": 999,
        "meta_rev_at_epoch": 98776,
        "meta_bstar": 9.5284e-05,
        "meta_mean_motion_dot": 1.41e-06,
        "meta_mean_motion_ddot": 0,
        "tle_line1": "1 29522U 06050A   25358.86287882  .00000141  00000+0  95284-4 0  9990",
        "tle_line2": "2 29522  98.7392   3.9995 0009931 188.7309 171.3693 14.14924542987766"
      },
      "geometry": {
        "type": "Point",
        "coordinates": [
          -99.61846030315597,
          80.99532178958952
        ]
      }
    },
    {
      "type": "Feature",
      "properties": {
        "norad_id": 32958,
        "name": "FENGYUN 3A",
        "group": "weather",
        "lat": 11.266657093333647,
        "lon": -63.31225577050089,
        "alt_km": 829.384078035634,
        "timestamp": "2025-12-25T03:55:55.948543+00:00",
        "meta_object_name": "FENGYUN 3A",
        "meta_object_id": "2008-026A",
        "meta_epoch": "2025-12-24T19:25:13.140768",
        "meta_mean_motion": 14.19518258,
        "meta_eccentricity": 0.0007611,
        "meta_inclination": 98.6714,
        "meta_ra_of_asc_node": 298.0827,
        "meta_arg_of_pericenter": 271.2931,
        "meta_mean_anomaly": 88.7373,
        "meta_ephemeris_type": 0,
        "meta_classification_type": "U",
        "meta_norad_cat_id": 32958,
        "meta_element_set_no": 999,
        "meta_rev_at_epoch": 91066,
        "meta_bstar": 7.9048e-05,
        "meta_mean_motion_dot": 1.23e-06,
        "meta_mean_motion_ddot": 0,
        "tle_line1": "1 32958U 08026A   25358.80917987  .00000123  00000+0  79048-4 0  9992",
        "tle_line2": "2 32958  98.6714 298.0827 0007611 271.2931  88.7373 14.19518258910662"
      },
      "geometry": {
        "type": "Point",
        "coordinates": [
          -63.31225577050089,
          11.266657093333647
        ]
      }
    },
    {
      "type": "Feature",
      "properties": {
        "norad_id": 35491,
        "name": "GOES 14",
        "group": "weather",
        "lat": -0.9372225453257068,
        "lon": 35.335032610351554,
        "alt_km": 35836.619176008026,
        "timestamp": "2025-12-25T03:55:55.948556+00:00",
        "meta_object_name": "GOES 14",
        "meta_object_id": "2009-033A",
        "meta_epoch": "2025-12-24T13:17:44.546784",
        "meta_mean_motion": 1.00097021,
        "meta_eccentricity": 6.57e-05,
        "meta_inclination": 1.2326,
        "meta_ra_of_asc_node": 85.2846,
        "meta_arg_of_pericenter": 190.4706,
        "meta_mean_anomaly": 259.8071,
        "meta_ephemeris_type": 0,
        "meta_classification_type": "U",
        "meta_norad_cat_id": 35491,
        "meta_element_set_no": 999,
        "meta_rev_at_epoch": 484,
        "meta_bstar": 0,
        "meta_mean_motion_dot": 3.4e-07,
        "meta_mean_motion_ddot": 0,
        "tle_line1": "1 35491U 09033A   25358.55398781  .00000034  00000+0  00000+0 0  9991",
        "tle_line2": "2 35491   1.2326  85.2846 0000657 190.4706 259.8071  1.00097021  4844"
      },
      "geometry": {
        "type": "Point",
        "coordinates": [
          35.335032610351554,
          -0.9372225453257068
        ]
      }
    },
    {
      "type": "Feature",
      "properties": {
        "norad_id": 35951,
        "name": "DMSP 5D-3 F18 (USA 210)",
        "group": "weather",
        "lat": -46.3205730966278,
        "lon": -15.068778751364134,
        "alt_km": 847.8523318993457,
        "timestamp": "2025-12-25T03:55:55.948569+00:00",
        "meta_object_name": "DMSP 5D-3 F18 (USA 210)",
        "meta_object_id": "2009-057A",
        "meta_epoch": "2025-12-24T19:40:02.220096",
        "meta_mean_motion": 14.14777005,
        "meta_eccentricity": 0.0011712,
        "meta_inclination": 98.8849,
        "meta_ra_of_asc_node": 335.1606,
        "meta_arg_of_pericenter": 30.8192,
        "meta_mean_anomaly": 329.3666,
        "meta_ephemeris_type": 0,
        "meta_classification_type": "U",
        "meta_norad_cat_id": 35951,
        "meta_element_set_no": 999,
        "meta_rev_at_epoch": 83493,
        "meta_bstar": 0.00016021,
        "meta_mean_motion_dot": 2.64e-06,
        "meta_mean_motion_ddot": 0,
        "tle_line1": "1 35951U 09057A   25358.81947014  .00000264  00000+0  16021-3 0  9995",
        "tle_line2": "2 35951  98.8849 335.1606 0011712  30.8192 329.3666 14.14777005834938"
      },
      "geometry": {
        "type": "Point",
        "coordinates": [
          -15.068778751364134,
          -46.3205730966278
        ]
      }
    },
    {
      "type": "Feature",
      "properties": {
        "norad_id": 36411,
        "name": "EWS-G2 (GOES 15)",
        "group": "weather",
        "lat": 0.6551115328270806,
        "lon": -145.78908720804955,
        "alt_km": 35771.34121485446,
        "timestamp": "2025-12-25T03:55:55.948583+00:00",
        "meta_object_name": "EWS-G2 (GOES 15)",
        "meta_object_id": "2010-008A",
        "meta_epoch": "2025-12-24T20:44:19.389120",
        "meta_mean_motion": 1.00271019,
        "meta_eccentricity": 0.0005568,
        "meta_inclination": 0.8416,
        "meta_ra_of_asc_node": 86.0745,
        "meta_arg_of_pericenter": 179.0047,
        "meta_mean_anomaly": 200.9869,
        "meta_ephemeris_type": 0,
        "meta_classification_type": "U",
        "meta_norad_cat_id": 36411,
        "meta_element_set_no": 999,
        "meta_rev_at_epoch": 5789,
        "meta_bstar": 0,
        "meta_mean_motion_dot": 5.9e-07,
        "meta_mean_motion_ddot": 0,
        "tle_line1": "1 36411U 10008A   25358.86411330  .00000059  00000+0  00000+0 0  9995",
        "tle_line2": "2 36411   0.8416  86.0745 0005568 179.0047 200.9869  1.00271019 57892"
      },
      "geometry": {
        "type": "Point",
        "coordinates": [
          -145.78908720804955,
          0.6551115328270806
        ]
      }
    }
  ]
}